NORAD_CAT_ID,OBJECT_NAME,OBJECT_TYPE,EPOCH,MEAN_MOTION,ECCENTRICITY,INCLINATION,RA_OF_ASC_NODE,ARG_OF_PERICENTER,MEAN_ANOMALY,BSTAR,MEAN_MOTION_DOT,MEAN_MOTION_DDOT,TLE_LINE0,TLE_LINE1,TLE_LINE2,SEMIMAJOR_AXIS,PERIOD,APOGEE,PERIGEE,DECAYED
53132.0,STARLINK-4063,PAYLOAD,2023-05-21 03:01:01,15.08851154,0.00012,53.2174,89.072,89.921,270.192,9.8054e-05,1.273e-05,0.0,0 STARLINK-4063,1 53132U 22083A   23141.12570636  .00001273  00000-0  98054-4 0  9993,2 53132  53.2174  89.0720 0001200  89.9210 270.1920 15.08851154 47321,6917.846,95.437,540.541,538.881,0.0
53132.0,STARLINK-4063,PAYLOAD,2023-05-21 20:30:16,15.08837654,0.0001235,53.218,85.8005,85.0319,275.0814,-5.5655e-05,-1.173e-05,0.0,0 STARLINK-4063,1 53132U 22083A   23141.85436036 -.00001173  00000-0 -55655-4 0  9999,2 53132  53.2180  85.8005 0001235  85.0319 275.0814 15.08837654 46800,6917.888,95.438,540.607,538.898,0.0
53132.0,STARLINK-4063,PAYLOAD,2023-05-22 02:51:49,15.08832111,0.0001188,53.2182,84.6111,96.892,263.2208,-0.00010313,-1.928e-05,0.0,0 STARLINK-4063,1 53132U 22083A   23142.11932520 -.00001928  00000-0 -10313-3 0  9997,2 53132  53.2182  84.6111 0001188  96.8920 263.2208 15.08832111 47475,6917.905,95.438,540.591,538.948,0.0
53132.0,STARLINK-4063,PAYLOAD,2023-05-22 06:02:35,15.0883346,0.000129,53.2182,84.016,97.7703,262.3436,-9.1367e-05,-1.741e-05,0.0,0 STARLINK-4063,1 53132U 22083A   23142.25180480 -.00001741  00000-0 -91367-4 0  9994,2 53132  53.2182  84.0160 0001290  97.7703 262.3436 15.08833460 46869,6917.9,95.438,540.658,538.873,0.0
53132.0,STARLINK-4063,PAYLOAD,2023-05-23 01:07:12,15.0884773,0.0001192,53.2195,80.4486,90.7914,269.3215,2.1873e-06,-2.53e-06,0.0,0 STARLINK-4063,1 53132U 22083A   23143.04667344 -.00000253  00000-0  21873-5 0  9993,2 53132  53.2195  80.4486 0001192  90.7914 269.3215 15.08847730 47613,6917.857,95.437,540.546,538.897,0.0
53132.0,STARLINK-4063,PAYLOAD,2023-05-23 20:11:50,15.08828822,0.0001266,53.2196,76.8837,97.7482,262.3654,0.00014298,1.988e-05,0.0,0 STARLINK-4063,1 53132U 22083A   23143.84156200  .00001988  00000-0  14298-3 0  9991,2 53132  53.2196  76.8837 0001266  97.7482 262.3654 15.08828822 47107,6917.915,95.438,540.655,538.904,0.0
53132.0,STARLINK-4063,PAYLOAD,2023-05-24 02:33:23,15.08829639,0.0001226,53.2195,75.6939,98.8703,261.2428,6.2875e-05,7.13e-06,0.0,0 STARLINK-4063,1 53132U 22083A   23144.10652583  .00000713  00000-0  62875-4 0  9996,2 53132  53.2195  75.6939 0001226  98.8703 261.2428 15.08829639 47777,6917.912,95.438,540.625,538.929,0.0
53132.0,STARLINK-4063,PAYLOAD,2023-05-24 05:44:10,15.08829738,0.0001264,53.2185,75.0967,93.2503,266.8633,0.00011264,1.505e-05,0.0,0 STARLINK-4063,1 53132U 22083A   23144.23900541  .00001505  00000-0  11264-3 0  9995,2 53132  53.2185  75.0967 0001264  93.2503 266.8633 15.08829738 47162,6917.912,95.438,540.651,538.902,0.0
53132.0,STARLINK-4063,PAYLOAD,2023-05-25 18:18:02,15.08835282,0.0001355,53.2173,68.2593,100.7024,259.412,8.4277e-05,1.053e-05,0.0,0 STARLINK-4063,1 53132U 22083A   23145.76252591  .00001053  00000-0  84277-4 0  9992,2 53132  53.2173  68.2593 0001355 100.7024 259.4120 15.08835282 48027,6917.895,95.438,540.697,538.822,0.0
53132.0,STARLINK-4063,PAYLOAD,2023-05-26 03:50:21,15.08837284,0.0001099,53.2175,66.474,98.604,261.5077,8.1646e-05,1.012e-05,0.0,0 STARLINK-4063,1 53132U 22083A   23146.15996617  .00001012  00000-0  81646-4 0  9992,2 53132  53.2175  66.4740 0001099  98.6040 261.5077 15.08837284 47456,6917.889,95.438,540.514,538.993,0.0
53132.0,STARLINK-4063,PAYLOAD,2023-05-27 02:05:45,15.08839903,0.000119,53.218,62.3099,92.6022,267.5106,-6.8051e-06,-3.96e-06,0.0,0 STARLINK-4063,1 53132U 22083A   23147.08733138 -.00000396  00000-0 -68051-5 0  9994,2 53132  53.2180  62.3099 0001190  92.6022 267.5106 15.08839903 48225,6917.881,95.438,540.569,538.922,0.0
53132.0,STARLINK-4063,PAYLOAD,2023-05-27 17:59:36,15.08841692,0.0001205,53.2185,59.3354,94.4596,265.6534,5.2123e-05,5.42e-06,0.0,0 STARLINK-4063,1 53132U 22083A   23147.74972883  .00000542  00000-0  52123-4 0  9992,2 53132  53.2185  59.3354 0001205  94.4596 265.6534 15.08841692 47695,6917.875,95.437,540.574,538.907,0.0
53132.0,STARLINK-4063,PAYLOAD,2023-05-28 00:21:08,15.0884759,0.0001202,53.2183,58.1464,93.775,266.338,0.00010438,1.374e-05,0.0,0 STARLINK-4063,1 53132U 22083A   23148.01468273  .00001374  00000-0  10438-3 0  9992,2 53132  53.2183  58.1464 0001202  93.7750 266.3380 15.08847590 48368,6917.857,95.437,540.554,538.891,0.0
53132.0,STARLINK-4063,PAYLOAD,2023-05-28 03:31:54,15.08848716,0.0001209,53.2184,57.5517,93.9358,266.1773,0.00011121,1.483e-05,0.0,0 STARLINK-4063,1 53132U 22083A   23148.14716159  .00001483  00000-0  11121-3 0  9996,2 53132  53.2184  57.5517 0001209  93.9358 266.1773 15.08848716 47751,6917.854,95.437,540.555,538.882,0.0
53132.0,STARLINK-4063,PAYLOAD,2023-05-28 21:01:09,15.08842706,0.0001189,53.2183,54.2812,91.4014,268.7114,4.338e-05,4.03e-06,0.0,0 STARLINK-4063,1 53132U 22083A   23148.87580656  .00000403  00000-0  43380-4 0  9991,2 53132  53.2183  54.2812 0001189  91.4014 268.7114 15.08842706 47863,6917.872,95.437,540.56,538.915,0.0
53132.0,STARLINK-4063,PAYLOAD,2023-05-29 00:11:55,15.08850003,0.0001213,53.2181,53.6863,94.6003,265.5127,5.7152e-05,6.22e-06,0.0,0 STARLINK-4063,1 53132U 22083A   23149.00828111  .00000622  00000-0  57152-4 0  9993,2 53132  53.2181  53.6863 0001213  94.6003 265.5127 15.08850003 47881,6917.85,95.437,540.554,538.876,0.0
53132.0,STARLINK-4063,PAYLOAD,2023-05-29 20:51:57,15.08836458,0.0001341,53.2169,49.8185,100.6577,259.4566,-4.4335e-05,-9.93e-06,0.0,0 STARLINK-4063,1 53132U 22083A   23149.86941182 -.00000993  00000-0 -44335-4 0  9993,2 53132  53.2169  49.8185 0001341 100.6577 259.4566 15.08836458 48010,6917.891,95.438,540.684,538.829,0.0
53132.0,STARLINK-4063,PAYLOAD,2023-05-30 00:02:43,15.08838777,0.000152,53.2184,49.2229,101.0395,259.0768,-5.3092e-05,-1.133e-05,0.0,0 STARLINK-4063,1 53132U 22083A   23150.00189138 -.00001133  00000-0 -53092-4 0  9993,2 53132  53.2184  49.2229 0001520 101.0395 259.0768 15.08838777 48669,6917.884,95.438,540.801,538.698,0.0
53132.0,STARLINK-4063,PAYLOAD,2023-05-30 03:13:29,15.08837589,0.0001238,53.2184,48.6308,99.7561,260.3571,-7.7654e-05,-1.523e-05,0.0,0 STARLINK-4063,1 53132U 22083A   23150.13437286 -.00001523  00000-0 -77654-4 0  9990,2 53132  53.2184  48.6308 0001238  99.7561 260.3571 15.08837589 48054,6917.888,95.438,540.609,538.896,0.0
53132.0,STARLINK-4063,PAYLOAD,2023-05-30 22:18:07,15.08843258,0.0001213,53.2182,45.0647,98.3473,261.7657,-4.206e-05,-9.57e-06,0.0,0 STARLINK-4063,1 53132U 22083A   23150.92924969 -.00000957  00000-0 -42060-4 0  9999,2 53132  53.2182  45.0647 0001213  98.3473 261.7657 15.08843258 48172,6917.87,95.437,540.575,538.896,0.0
53132.0,STARLINK-4063,PAYLOAD,2023-05-30 23:53:30,15.08845641,0.000118,53.2179,44.7679,95.1895,264.9232,-7.6856e-06,-4.1e-06,0.0,0 STARLINK-4063,1 53132U 22083A   23150.99548699 -.00000410  00000-0 -76856-5 0  9993,2 53132  53.2179  44.7679 0001180  95.1895 264.9232 15.08845641 48818,6917.863,95.437,540.544,538.912,0.0
53132.0,STARLINK-4063,PAYLOAD,2023-05-31 03:04:16,15.08849403,0.0001191,53.2178,44.172,94.9362,265.1766,2.2609e-05,7.2e-07,0.0,0 STARLINK-4063,1 53132U 22083A   23151.12796343  .00000072  00000-0  22609-4 0  9998,2 53132  53.2178  44.1720 0001191  94.9362 265.1766 15.08849403 48204,6917.852,95.437,540.541,538.893,0.0
53132.0,STARLINK-4063,PAYLOAD,2023-05-31 22:08:54,15.08834453,0.0001181,53.2179,40.6027,95.8159,264.2968,5.7614e-05,6.29e-06,0.0,0 STARLINK-4063,1 53132U 22083A   23151.92285350  .00000629  00000-0  57614-4 0  9999,2 53132  53.2179  40.6027 0001181  95.8159 264.2968 15.08834453 48325,6917.897,95.438,540.579,538.945,0.0
53132.0,STARLINK-4063,PAYLOAD,2023-06-01 01:19:40,15.08840683,0.0001171,53.2181,40.0102,97.4678,262.6448,0.00010472,1.379e-05,0.0,0 STARLINK-4063,1 53132U 22083A   23152.05532847  .00001379  00000-0  10472-3 0  9993,2 53132  53.2181  40.0102 0001171  97.4678 262.6448 15.08840683 48977,6917.878,95.438,540.553,538.933,0.0
53132.0,STARLINK-4063,PAYLOAD,2023-06-02 01:10:27,15.08841943,0.0001188,53.2182,35.5472,79.4804,280.6322,-1.4907e-06,-3.12e-06,0.0,0 STARLINK-4063,1 53132U 22083A   23153.04893356 -.00000312  00000-0 -14907-5 0  9995,2 53132  53.2182  35.5472 0001188  79.4804 280.6322 15.08841943 49125,6917.874,95.437,540.561,538.918,0.0
53132.0,STARLINK-4063,PAYLOAD,2023-06-02 21:50:28,15.08839087,0.0001022,53.218,31.6846,103.552,256.5586,-4.6321e-07,-2.95e-06,0.0,0 STARLINK-4063,1 53132U 22083A   23153.91005683 -.00000295  00000-0 -46321-6 0  9995,2 53132  53.2180  31.6846 0001022 103.5520 256.5586 15.08839087 48620,6917.883,95.438,540.455,539.041,0.0
53132.0,STARLINK-4063,PAYLOAD,2023-06-03 01:01:15,15.08839396,0.0001173,53.219,31.0878,91.2884,268.8242,7.4515e-05,8.98e-06,0.0,0 STARLINK-4063,1 53132U 22083A   23154.04253499  .00000898  00000-0  74515-4 0  9991,2 53132  53.2190  31.0878 0001173  91.2884 268.8242 15.08839396 48643,6917.882,95.438,540.559,538.936,0.0
53132.0,STARLINK-4063,PAYLOAD,2023-06-03 21:41:16,15.08841807,0.0001103,53.2197,27.2197,89.0022,271.1097,-1.3965e-05,-5.1e-06,0.0,0 STARLINK-4063,1 53132U 22083A   23154.90365818 -.00000510  00000-0 -13965-4 0  9990,2 53132  53.2197  27.2197 0001103  89.0022 271.1097 15.08841807 48772,6917.875,95.437,540.503,538.977,0.0
53132.0,STARLINK-4063,PAYLOAD,2023-06-04 00:52:01,15.08845483,0.0001064,53.2187,26.6269,98.3648,261.7465,5.313e-05,5.58e-06,0.0,0 STARLINK-4063,1 53132U 22083A   23155.03613312  .00000558  00000-0  53130-4 0  9998,2 53132  53.2187  26.6269 0001064  98.3648 261.7465 15.08845483 49428,6917.864,95.437,540.465,538.993,0.0
53132.0,STARLINK-4063,PAYLOAD,2023-06-04 15:10:30,15.08838294,0.0001129,53.2189,23.9499,102.2254,257.8865,1.9299e-05,1.9e-07,0.0,0 STARLINK-4063,1 53132U 22083A   23155.63229957  .00000019  00000-0  19299-4 0  9992,2 53132  53.2189  23.9499 0001129 102.2254 257.8865 15.08838294 49517,6917.886,95.438,540.532,538.97,0.0
